              M50 Cartesian                         J2K Cartesian  
    -----------------------------------       --------------------------------
     X    =       17046676.03                 X    =         5161618.22
     Y    =        3976418.74  feet           Y    =         1269924.55  meter
     Z    =       13690172.52                 Z    =         4197921.41
     XDOT =     -13792.761014                 XDOT =       -4280.405456
     YDOT =      17229.848196  feet/sec       YDOT =        5204.218479  meter/sec
     ZDOT =      12129.647391                 ZDOT =        3676.508781
 
              TDR Cartesian                         TDR Cartesian  
    -----------------------------------       --------------------------------
     X    =        9267199.31                 X    =         2824642.35
     Y    =      -14747292.36  feet           Y    =        -4494974.71  meter
     Z    =       13800662.24                 Z    =         4206441.85
     XDOT =      10718.884831                 XDOT =        3267.116096
     YDOT =      18038.348613  feet/sec       YDOT =        5498.088657  meter/sec
     ZDOT =      12037.979331                 ZDOT =        3669.176100
  
  
    The mean element set is posted at the UTC for which position is
    just north of the next ascending node relative to the above
    vector time
 
 
    TWO LINE MEAN ELEMENT SET
  
    ISS
    1 25544U 98067A   17108.67996273  .00016717  00000-0  10270-3 0  9070
    2 25544  51.6390 334.9170 0006645  67.7030 292.4827 15.54137034 12490
  
  
    Satellite: ISS
    Catalog Number: 25544
    Epoch time:      17108.67996273   =   yrday.fracday
    Element set:     907
    Inclination:       51.6390  deg
    RA of node:       334.9170  deg
    Eccentricity:     .0006645     
    Arg of perigee:    67.7030  deg
    Mean anomaly:     292.4827  deg
    Mean motion:   15.54137034  rev/day
    Decay rate:    1.67170E-04  rev/day^2
    Epoch rev:            1249
    Checksum:              324
 
 
    Coasting Arc #9 (Orbit 1248)
    ---------------------------------------
 
    Vector Time (GMT): 2017/108/15:11:23.000
    Vector Time (MET): N/A
    Weight (LBS)     : 885943.0
 
              M50 Cartesian                         M50 Keplerian  
    -----------------------------------       --------------------------------
     X    =        1125647.78                 A    =         6777610.78  meter
     Y    =        4108036.99  meter          E    =           .0009855
     Z    =        5264470.46                 I    =           51.46269
     XDOT =      -7114.792933                 Wp   =           66.22878
     YDOT =       2802.639998  meter/sec      RA   =          334.55277  deg
     ZDOT =       -660.829120                 TA   =           30.11888
                                              MA   =           30.06225
                                              Ha   =            223.443  n.mi
                                              Hp   =            212.361
 
              M50 Cartesian                         J2K Cartesian  
    -----------------------------------       --------------------------------
     X    =        3693070.15                 X    =         1054054.53
     Y    =       13477811.64  feet           Y    =         4120224.61  meter
     Z    =       17271884.72                 Z    =         5269764.54
     XDOT =     -23342.496500                 XDOT =       -7142.393985
     YDOT =       9195.013118  feet/sec       YDOT =        2722.923222  meter/sec
     ZDOT =      -2168.074540                 ZDOT =        -695.458024
 
              TDR Cartesian                         TDR Cartesian  
    -----------------------------------       --------------------------------
     X    =       13943589.77                 X    =         4250006.16
     Y    =         295712.84  feet           Y    =           90133.27  meter
     Z    =       17294422.04                 Z    =         5271339.84
     XDOT =       2390.753661                 XDOT =         728.701716
     YDOT =      23945.606636  feet/sec       YDOT =        7298.620903  meter/sec
     ZDOT =      -2320.995020                 ZDOT =        -707.439282
  
  
    The mean element set is posted at the UTC for which position is
    just north of the next ascending node relative to the above
    vector time
 
 
    TWO LINE MEAN ELEMENT SET
  
    ISS
    1 25544U 98067A   17108.67996431  .00016717  00000-0  10270-3 0  9087
    2 25544  51.6390 334.9168 0006797  68.5015 291.6862 15.54093229 12494
  
  
    Satellite: ISS
    Catalog Number: 25544
    Epoch time:      17108.67996431   =   yrday.fracday
    Element set:     908
    Inclination:       51.6390  deg
    RA of node:       334.9168  deg
    Eccentricity:     .0006797     
    Arg of perigee:    68.5015  deg
    Mean anomaly:     291.6862  deg
    Mean motion:   15.54093229  rev/day
    Decay rate:    1.67170E-04  rev/day^2
    Epoch rev:            1249
    Checksum:              345
 
 
    Coasting Arc #10 (Orbit 1253)
    ---------------------------------------
 
    Vector Time (GMT): 2017/108/23:47:30.000
    Vector Time (MET): N/A
    Weight (LBS)     : 885943.0
 
              M50 Cartesian                         M50 Keplerian  
    -----------------------------------       --------------------------------
     X    =        1642095.29                 A    =         6780930.16  meter
     Y    =       -4845128.39  meter          E    =           .0015201
     Z    =       -4464312.47                 I    =           51.46647
     XDOT =       6903.407032                 Wp   =           92.58518
     YDOT =       -645.548095  meter/sec      RA   =          332.74708  deg
     ZDOT =       3248.796407                 TA   =          210.21865
                                              MA   =          210.30640
                                              Ha   =            223.473  n.mi
                                              Hp   =            212.263
 
              M50 Cartesian                         J2K Cartesian  
    -----------------------------------       --------------------------------
     X    =        5387451.75                 X    =         1717838.36
     Y    =      -15896090.53  feet           Y    =        -4826342.02  meter
     Z    =      -14646694.45                 Z    =        -4456151.48
     XDOT =      22648.973201                 XDOT =        6894.331450
     YDOT =      -2117.939943  feet/sec       YDOT =        -568.400162  meter/sec
     ZDOT =      10658.780863                 ZDOT =        3282.309278
 
              TDR Cartesian                         TDR Cartesian  
    -----------------------------------       --------------------------------
     X    =        1250107.74                 X    =          381032.84
     Y    =       16769751.66  feet           Y    =         5111420.31  meter
     Z    =      -14609881.87                 Z    =        -4453092.00
     XDOT =     -18678.888136                 XDOT =       -5693.325104
     YDOT =      10781.434378  feet/sec       YDOT =        3286.181198  meter/sec
     ZDOT =      10806.387551                 ZDOT =        3293.786926
  
  
    The mean element set is posted at the UTC for which position is
    just north of the next ascending node relative to the above
    vector time
 
 
    TWO LINE MEAN ELEMENT SET
  
    ISS
    1 25544U 98067A   17109.00147403  .00016717  00000-0  10270-3 0  9093
    2 25544  51.6419 333.3167 0006941  69.3004 290.8892 15.54132159 12542
  
  
    Satellite: ISS
    Catalog Number: 25544
    Epoch time:      17109.00147403   =   yrday.fracday
    Element set:     909
    Inclination:       51.6419  deg
    RA of node:       333.3167  deg
    Eccentricity:     .0006941     
    Arg of perigee:    69.3004  deg
    Mean anomaly:     290.8892  deg
    Mean motion:   15.54132159  rev/day
    Decay rate:    1.67170E-04  rev/day^2
    Epoch rev:            1254
    Checksum:              299
 
 
    Coasting Arc #11 (Orbit 1269)
    ---------------------------------------
 
    Vector Time (GMT): 2017/109/23:47:30.000
    Vector Time (MET): N/A
    Weight (LBS)     : 885943.0
 
              M50 Cartesian                         M50 Keplerian  
    -----------------------------------       --------------------------------
     X    =       -3099452.14                 A    =         6784714.61  meter
     Y    =        5052363.05  meter          E    =           .0019278
     Z    =        3286530.04                 I    =           51.45021
     XDOT =      -6031.226783                 Wp   =           85.16210
     YDOT =       -624.773352  meter/sec      RA   =          327.74870  deg
     ZDOT =      -4702.038098                 TA   =           56.51825
                                              MA   =           56.33415
                                              Ha   =            223.446  n.mi
                                              Hp   =            212.212
 
              M50 Cartesian                         J2K Cartesian  
    -----------------------------------       --------------------------------
     X    =      -10168806.23                 X    =        -3171683.08
     Y    =       16575994.26  feet           Y    =         5017299.15  meter
     Z    =       10782578.86                 Z    =         3271298.11
     XDOT =     -19787.489447                 XDOT =       -6000.951799
     YDOT =      -2049.781338  feet/sec       YDOT =        -692.049526  meter/sec
     ZDOT =     -15426.634181                 ZDOT =       -4731.262568
 
